[{"OBJECT_NAME":"STARLINK-3679","OBJECT_ID":"2022-025T","EPOCH":"2026-03-09T07:06:27.034272","MEAN_MOTION":15.06397139,"ECCENTRICITY":0.00012849,"INCLINATION":53.0552,"RA_OF_ASC_NODE":32.5908,"ARG_OF_PERICENTER":96.4999,"MEAN_ANOMALY":263.6136,"EPHEMERIS_TYPE":0,"CLASSIFICATION_TYPE":"U","NORAD_CAT_ID":51973,"ELEMENT_SET_NO":999,"REV_AT_EPOCH":22086,"BSTAR":1.45703e-5,"MEAN_MOTION_DOT":-6.4e-7,"MEAN_MOTION_DDOT":0},{"OBJECT_NAME":"OKEAN-3","OBJECT_ID":"1991-039A","EPOCH":"2026-03-09T19:29:17.530944","MEAN_MOTION":15.0480588,"ECCENTRICITY":0.00139411,"INCLINATION":82.519,"RA_OF_ASC_NODE":336.7249,"ARG_OF_PERICENTER":337.9296,"MEAN_ANOMALY":22.1329,"EPHEMERIS_TYPE":0,"CLASSIFICATION_TYPE":"U","NORAD_CAT_ID":21397,"ELEMENT_SET_NO":999,"REV_AT_EPOCH":86505,"BSTAR":0.00031884915,"MEAN_MOTION_DOT":4.536e-5,"MEAN_MOTION_DDOT":0}]
